COSMOS 1408 DEB         
1 50032U 82092RU  26194.47506651  .00002708  00000+0  50919-4 0  9991
2 50032  82.5609 200.0541 0016109 153.3554 206.8527 15.47894265258924
COSMOS 1408 DEB         
1 50058U 82092SW  26194.47805481  .00048154  00000+0  20547-3 0  9990
2 50058  82.6051 203.4812 0007291  39.4015 320.7784 15.84963841261495
COSMOS 1408 DEB         
1 50621U 82092ALR 26194.51693476  .00027498  00000+0  21419-3 0  9997
2 50621  82.5622 210.2395 0021303  83.9892 276.3798 15.71230218255757
